{
    "links": {
        "self": "http://www.neowsapp.com/rest/v1/neo/3727661?api_key=iIulBulltgU6a56xZRHN4H3l9WmuAYTsLGpBGhQ2"
    },
    "id": "3727661",
    "neo_reference_id": "3727661",
    "name": "(2015 RV83)",
    "designation": "2015 RV83",
    "nasa_jpl_url": "http://ssd.jpl.nasa.gov/sbdb.cgi?sstr=3727661",
    "absolute_magnitude_h": 21.6,
    "estimated_diameter": {
        "kilometers": {
            "estimated_diameter_min": 0.1272198785,
            "estimated_diameter_max": 0.2844722965
        },
        "meters": {
            "estimated_diameter_min": 127.2198785394,
            "estimated_diameter_max": 284.4722965033
        },
        "miles": {
            "estimated_diameter_min": 0.0790507431,
            "estimated_diameter_max": 0.1767628354
        },
        "feet": {
            "estimated_diameter_min": 417.3880663071,
            "estimated_diameter_max": 933.3080892598
        }
    },
    "is_potentially_hazardous_asteroid": false,
    "close_approach_data": [
        {
            "close_approach_date": "1991-06-29",
            "close_approach_date_full": "1991-Jun-29 00:04",
            "epoch_date_close_approach": 678153840000,
            "relative_velocity": {
                "kilometers_per_second": "3.8200769456",
                "kilometers_per_hour": "13752.2770041951",
                "miles_per_hour": "8545.1301196344"
            },
            "miss_distance": {
                "astronomical": "0.2065432827",
                "lunar": "80.3453369703",
                "kilometers": "30898435.154727849",
                "miles": "19199397.3172643562"
            },
            "orbiting_body": "Earth"
        },
        {
            "close_approach_date": "2003-07-01",
            "close_approach_date_full": "2003-Jul-01 01:03",
            "epoch_date_close_approach": 1057021380000,
            "relative_velocity": {
                "kilometers_per_second": "4.1097739418",
                "kilometers_per_hour": "14795.1861905884",
                "miles_per_hour": "9193.1533304798"
            },
            "miss_distance": {
                "astronomical": "0.2275881404",
                "lunar": "88.5317866156",
                "kilometers": "34046701.041100948",
                "miles": "21155639.0269231624"
            },
            "orbiting_body": "Earth"
        },
        {
            "close_approach_date": "2015-07-04",
            "close_approach_date_full": "2015-Jul-04 06:05",
            "epoch_date_close_approach": 1435989900000,
            "relative_velocity": {
                "kilometers_per_second": "4.4799254487",
                "kilometers_per_hour": "16127.7316153578",
                "miles_per_hour": "10021.1452362205"
            },
            "miss_distance": {
                "astronomical": "0.2623678375",
                "lunar": "102.0610887875",
                "kilometers": "39249669.646506125",
                "miles": "24388613.803289525"
            },
            "orbiting_body": "Earth"
        },
        {
            "close_approach_date": "2027-07-12",
            "close_approach_date_full": "2027-Jul-12 07:01",
            "epoch_date_close_approach": 1815375660000,
            "relative_velocity": {
                "kilometers_per_second": "4.2590294312",
                "kilometers_per_hour": "15332.5059521864",
                "miles_per_hour": "9527.0229345683"
            },
            "miss_distance": {
                "astronomical": "0.314117847",
                "lunar": "122.191842483",
                "kilometers": "46991360.84018589",
                "miles": "29199077.646869682"
            },
            "orbiting_body": "Earth"
        }
    ],
    "orbital_data": {
        "orbit_id": "7",
        "orbit_determination_date": "2017-04-06 08:31:54",
        "first_observation_date": "2015-09-12",
        "last_observation_date": "2015-10-17",
        "data_arc_in_days": 35,
        "observations_used": 22,
        "orbit_uncertainty": "6",
        "minimum_orbit_intersection": ".189442",
        "jupiter_tisserand_invariant": "4.001",
        "epoch_osculation": "2459000.5",
        "eccentricity": ".3415989191618292",
        "semi_major_axis": "1.791366720706906",
        "inclination": "6.068920099436134",
        "ascending_node_longitude": "221.2329257072288",
        "orbital_period": "875.7399853405415",
        "perihelion_distance": "1.179437785090957",
        "perihelion_argument": "59.898970613086",
        "aphelion_distance": "2.403295656322856",
        "perihelion_time": "2458948.315928006399",
        "mean_anomaly": "21.45187639272968",
        "mean_motion": ".4110809213079495",
        "equinox": "J2000",
        "orbit_class": {
            "orbit_class_type": "AMO",
            "orbit_class_description": "Near-Earth asteroid orbits similar to that of 1221 Amor",
            "orbit_class_range": "1.017 AU < q (perihelion) < 1.3 AU"
        }
    },
    "is_sentry_object": false
}